NORAD_CAT_ID,OBJECT_NAME,OBJECT_TYPE,EPOCH,MEAN_MOTION,ECCENTRICITY,INCLINATION,RA_OF_ASC_NODE,ARG_OF_PERICENTER,MEAN_ANOMALY,BSTAR,MEAN_MOTION_DOT,MEAN_MOTION_DDOT,TLE_LINE0,TLE_LINE1,TLE_LINE2,SEMIMAJOR_AXIS,PERIOD,APOGEE,PERIGEE,DECAYED
53792.0,STARLINK-4739,PAYLOAD,2024-01-04 21:44:40,15.08843943,0.0001587,53.2158,241.8467,102.1351,257.9819,6.3282e-05,7.19e-06,0.0,0 STARLINK-4739,1 53792U 22111V   24004.90602115  .00000719  00000-0  63282-4 0  9999,2 53792  53.2158 241.8467 0001587 102.1351 257.9819 15.08843943 73701,6917.868,95.437,540.831,538.635,0.0
53792.0,STARLINK-4739,PAYLOAD,2024-01-05 00:55:26,15.08845853,0.0001581,53.2161,241.2507,84.4021,275.7151,0.00010087,1.318e-05,0.0,0 STARLINK-4739,1 53792U 22111V   24005.03849959  .00001318  00000-0  10087-3 0  9993,2 53792  53.2161 241.2507 0001581  84.4021 275.7151 15.08845853 73725,6917.862,95.437,540.821,538.634,0.0
53792.0,STARLINK-4739,PAYLOAD,2024-01-05 20:00:04,15.08823481,0.0001513,53.2167,237.6799,121.3873,238.7268,0.00023217,3.407e-05,0.0,0 STARLINK-4739,1 53792U 22111V   24005.83338544  .00003407  00000-0  23217-3 0  9994,2 53792  53.2167 237.6799 0001513 121.3873 238.7268 15.08823481 73040,6917.931,95.439,540.843,538.749,0.0
53792.0,STARLINK-4739,PAYLOAD,2024-01-05 21:35:28,15.08818695,0.0001619,53.217,237.3791,77.554,282.5633,0.00027423,4.077e-05,0.0,0 STARLINK-4739,1 53792U 22111V   24005.89962990  .00004077  00000-0  27423-3 0  9995,2 53792  53.2170 237.3791 0001619  77.5540 282.5633 15.08818695 73856,6917.946,95.439,540.931,538.69,0.0
53792.0,STARLINK-4739,PAYLOAD,2024-01-06 00:46:13,15.08839776,0.0001472,53.2157,236.7909,94.7201,265.396,2.7559e-05,1.51e-06,0.0,0 STARLINK-4739,1 53792U 22111V   24006.03210529  .00000151  00000-0  27559-4 0  9996,2 53792  53.2157 236.7909 0001472  94.7201 265.3960 15.08839776 73076,6917.881,95.438,540.764,538.728,0.0
53792.0,STARLINK-4739,PAYLOAD,2024-01-06 21:26:14,15.08844143,0.0001586,53.2159,232.9236,97.1822,262.935,4.2131e-06,-2.21e-06,0.0,0 STARLINK-4739,1 53792U 22111V   24006.89322263 -.00000221  00000-0  42131-5 0  9992,2 53792  53.2159 232.9236 0001586  97.1822 262.9350 15.08844143 74005,6917.868,95.437,540.83,538.636,0.0
53792.0,STARLINK-4739,PAYLOAD,2024-01-07 00:37:00,15.08844338,0.0001584,53.2159,232.3288,97.5412,262.576,6.3976e-06,-1.86e-06,0.0,0 STARLINK-4739,1 53792U 22111V   24007.02570203 -.00000186  00000-0  63976-5 0  9997,2 53792  53.2159 232.3288 0001584  97.5412 262.5760 15.08844338 74022,6917.867,95.437,540.828,538.636,0.0
53792.0,STARLINK-4739,PAYLOAD,2024-01-07 19:41:38,15.08843105,0.000149,53.2157,228.7607,93.5194,266.5968,7.7263e-05,9.42e-06,0.0,0 STARLINK-4739,1 53792U 22111V   24007.82057954  .00000942  00000-0  77263-4 0  9990,2 53792  53.2157 228.7607 0001490  93.5194 266.5968 15.08843105 73342,6917.871,95.437,540.767,538.705,0.0
53792.0,STARLINK-4739,PAYLOAD,2024-01-07 21:17:01,15.08843485,0.0001504,53.2158,228.4633,94.3457,265.7707,7.96e-05,9.79e-06,0.0,0 STARLINK-4739,1 53792U 22111V   24007.88681890  .00000979  00000-0  79600-4 0  9995,2 53792  53.2158 228.4633 0001504  94.3457 265.7707 15.08843485 74159,6917.87,95.437,540.775,538.694,0.0
53792.0,STARLINK-4739,PAYLOAD,2024-01-08 00:27:47,15.08843797,0.0001512,53.2158,227.8687,95.0586,265.0579,8.0104e-05,9.87e-06,0.0,0 STARLINK-4739,1 53792U 22111V   24008.01929839  .00000987  00000-0  80104-4 0  9999,2 53792  53.2158 227.8687 0001512  95.0586 265.0579 15.08843797 74179,6917.869,95.437,540.78,538.688,0.0
53792.0,STARLINK-4739,PAYLOAD,2024-01-08 19:32:25,15.08833194,0.0001627,53.2162,224.2984,109.203,250.9138,-3.2793e-05,-8.1e-06,0.0,0 STARLINK-4739,1 53792U 22111V   24008.81418905 -.00000810  00000-0 -32793-4 0  9992,2 53792  53.2162 224.2984 0001627 109.2030 250.9138 15.08833194 73492,6917.901,95.438,540.892,538.641,0.0
53792.0,STARLINK-4739,PAYLOAD,2024-01-08 21:07:49,15.08833004,0.0001575,53.2161,224.0011,106.0628,254.0537,-3.6979e-05,-8.76e-06,0.0,0 STARLINK-4739,1 53792U 22111V   24008.88042962 -.00000876  00000-0 -36979-4 0  9997,2 53792  53.2161 224.0011 0001575 106.0628 254.0537 15.08833004 74309,6917.902,95.438,540.856,538.677,0.0
53792.0,STARLINK-4739,PAYLOAD,2024-01-09 14:37:03,15.08839696,0.000137,53.2154,220.7317,106.0353,254.079,-4.3355e-05,-9.78e-06,0.0,0 STARLINK-4739,1 53792U 22111V   24009.60906799 -.00000978  00000-0 -43355-4 0  9994,2 53792  53.2154 220.7317 0001370 106.0353 254.0790 15.08839696 74417,6917.881,95.438,540.694,538.799,0.0
53792.0,STARLINK-4739,PAYLOAD,2024-01-09 19:23:12,15.08838141,0.0001618,53.2162,219.8388,111.7944,248.322,6.7104e-06,-1.81e-06,0.0,0 STARLINK-4739,1 53792U 22111V   24009.80778685 -.00000181  00000-0  67104-5 0  9991,2 53792  53.2162 219.8388 0001618 111.7944 248.3220 15.08838141 73649,6917.886,95.438,540.87,538.632,0.0
53792.0,STARLINK-4739,PAYLOAD,2024-01-10 00:09:22,15.08836713,0.0001571,53.2161,218.9471,108.8937,251.2226,-6.5877e-06,-3.93e-06,0.0,0 STARLINK-4739,1 53792U 22111V   24010.00650874 -.00000393  00000-0 -65877-5 0  9995,2 53792  53.2161 218.9471 0001571 108.8937 251.2226 15.08836713 74472,6917.89,95.438,540.842,538.669,0.0
53792.0,STARLINK-4739,PAYLOAD,2024-01-10 20:49:23,15.08836736,0.0001376,53.216,215.0827,100.132,259.9827,7.9442e-05,9.77e-06,0.0,0 STARLINK-4739,1 53792U 22111V   24010.86762950  .00000977  00000-0  79442-4 0  9996,2 53792  53.2160 215.0827 0001376 100.1320 259.9827 15.08836736 73801,6917.89,95.438,540.707,538.803,0.0
53792.0,STARLINK-4739,PAYLOAD,2024-01-11 19:04:42,15.08883789,0.0001225,53.2163,210.9193,95.1815,264.9317,0.00036547,5.54e-05,0.0,0 STARLINK-4739,1 53792U 22111V   24011.79493366  .00005540  00000-0  36547-3 0  9990,2 53792  53.2163 210.9193 0001225  95.1815 264.9317 15.08883789 73944,6917.747,95.435,540.459,538.764,0.0
53792.0,STARLINK-4739,PAYLOAD,2024-01-11 20:40:09,15.0883263,0.0001208,53.216,210.6221,93.9408,266.1722,-6.445e-05,-1.313e-05,0.0,0 STARLINK-4739,1 53792U 22111V   24011.86121918 -.00001313  00000-0 -64450-4 0  9990,2 53792  53.2160 210.6221 0001208  93.9408 266.1722 15.08832630 74758,6917.903,95.438,540.604,538.932,0.0
53792.0,STARLINK-4739,PAYLOAD,2024-01-11 22:15:32,15.088358,0.0001201,53.2159,210.3246,96.005,264.1079,-3.9544e-05,-9.17e-06,0.0,0 STARLINK-4739,1 53792U 22111V   24011.92745623 -.00000917  00000-0 -39544-4 0  9997,2 53792  53.2159 210.3246 0001201  96.0050 264.1079 15.08835800 73967,6917.893,95.438,540.589,538.927,0.0
53792.0,STARLINK-4739,PAYLOAD,2024-01-12 20:30:56,15.08836337,0.0001218,53.2162,206.1611,86.3433,273.7699,-6.8558e-05,-1.379e-05,0.0,0 STARLINK-4739,1 53792U 22111V   24012.85481666 -.00001379  00000-0 -68558-4 0  9994,2 53792  53.2162 206.1611 0001218  86.3433 273.7699 15.08836337 74900,6917.892,95.438,540.599,538.914,0.0
53792.0,STARLINK-4739,PAYLOAD,2024-01-13 12:24:46,15.08884215,0.0001525,53.2162,203.1887,83.0617,277.0549,-0.00075347,-0.00012274,0.0,0 STARLINK-4739,1 53792U 22111V   24013.51720954 -.00012274  00000-0 -75347-3 0  9993,2 53792  53.2162 203.1887 0001525  83.0617 277.0549 15.08884215 74203,6917.745,95.435,540.665,538.555,0.0
53792.0,STARLINK-4739,PAYLOAD,2024-01-13 21:57:05,15.08877818,0.0001481,53.2162,201.4037,85.2469,274.8692,-0.00068822,-0.00011236,0.0,0 STARLINK-4739,1 53792U 22111V   24013.91464195 -.00011236  00000-0 -68822-3 0  9996,2 53792  53.2162 201.4037 0001481  85.2469 274.8692 15.08877818 75061,6917.765,95.435,540.654,538.605,0.0
53792.0,STARLINK-4739,PAYLOAD,2024-01-14 18:37:07,15.08824146,0.0001188,53.2162,197.5381,82.5603,277.5524,8.3057e-05,1.034e-05,0.0,0 STARLINK-4739,1 53792U 22111V   24014.77578170  .00001034  00000-0  83057-4 0  9991,2 53792  53.2162 197.5381 0001188  82.5603 277.5524 15.08824146 74397,6917.929,95.439,540.616,538.972,0.0
53792.0,STARLINK-4739,PAYLOAD,2024-01-14 21:47:53,15.08826298,0.0001154,53.2159,196.9427,85.1642,274.9482,0.00010017,1.306e-05,0.0,0 STARLINK-4739,1 53792U 22111V   24014.90826112  .00001306  00000-0  10017-3 0  9995,2 53792  53.2159 196.9427 0001154  85.1642 274.9482 15.08826298 75218,6917.922,95.438,540.586,538.989,0.0
53792.0,STARLINK-4739,PAYLOAD,2024-01-15 18:27:55,15.08828954,0.0001124,53.2159,193.0763,93.2116,266.9005,9.4121e-05,1.21e-05,0.0,0 STARLINK-4739,1 53792U 22111V   24015.76938750  .00001210  00000-0  94121-4 0  9995,2 53792  53.2159 193.0763 0001124  93.2116 266.9005 15.08828954 75349,6917.914,95.438,540.557,539.002,0.0
53792.0,STARLINK-4739,PAYLOAD,2024-01-16 10:21:46,15.08830238,0.0001148,53.2162,190.1022,98.1968,261.9154,9.2772e-05,1.189e-05,0.0,0 STARLINK-4739,1 53792U 22111V   24016.43179179  .00001189  00000-0  92772-4 0  9997,2 53792  53.2162 190.1022 0001148  98.1968 261.9154 15.08830238 74644,6917.91,95.438,540.569,538.981,0.0
53792.0,STARLINK-4739,PAYLOAD,2024-01-16 18:18:42,15.08835519,0.0001151,53.2164,188.6162,100.5846,259.5276,0.00010617,1.402e-05,0.0,0 STARLINK-4739,1 53792U 22111V   24016.76298950  .00001402  00000-0  10617-3 0  9997,2 53792  53.2164 188.6162 0001151 100.5846 259.5276 15.08835519 75499,6917.894,95.438,540.555,538.963,0.0
53792.0,STARLINK-4739,PAYLOAD,2024-01-17 14:58:43,15.08831866,0.0001185,53.2167,184.7517,97.9096,262.203,5.4087e-05,5.73e-06,0.0,0 STARLINK-4739,1 53792U 22111V   24017.62411850  .00000573  00000-0  54087-4 0  9997,2 53792  53.2167 184.7517 0001185  97.9096 262.2030 15.08831866 75621,6917.905,95.438,540.59,538.95,0.0
53792.0,STARLINK-4739,PAYLOAD,2024-01-17 16:34:07,15.0883177,0.0001177,53.2166,184.4542,97.5602,262.5524,5.0697e-05,5.19e-06,0.0,0 STARLINK-4739,1 53792U 22111V   24017.69035892  .00000519  00000-0  50697-4 0  9995,2 53792  53.2166 184.4542 0001177  97.5602 262.5524 15.08831770 74832,6917.906,95.438,540.585,538.956,0.0
53792.0,STARLINK-4739,PAYLOAD,2024-01-18 14:49:30,15.08838651,0.0001319,53.2177,180.2918,103.8274,256.2865,9.367e-05,1.203e-05,0.0,0 STARLINK-4739,1 53792U 22111V   24018.61771669  .00001203  00000-0  93670-4 0  9996,2 53792  53.2177 180.2918 0001319 103.8274 256.2865 15.08838651 75776,6917.885,95.438,540.662,538.837,0.0
